FLOCK 4G-18             
1 62680U 25009BZ  26068.19114186  .00011766  00000+0  44319-3 0  9995
2 62680  97.4054 150.5008 0004100 335.7331  24.3715 15.27241676121267
STARLINK-33693          
1 63409U 25065L   26068.52060597  .00034170  00000+0  12444-2 0  9997
2 63409  43.0001 108.0642 0001489 277.6546  82.4136 15.27608182 52812
